KUIPER-00140            
1 65965U 25228U   26191.31196979  .00001788  00000+0  26347-3 0  9992
2 65965  51.8982 163.4277 0000558  75.3014 284.8010 14.79933287 41599
KUIPER-00141            
1 65966U 25228V   26191.31737995  .00001742  00000+0  25749-3 0  9997
2 65966  51.9009 158.4578 0000728  73.4076 286.6967 14.79926994 41661
KUIPER-00146            
1 65967U 25228W   26191.34844979  .00000974  00000+0  15675-3 0  9995
2 65967  51.9012 160.8304 0000754  60.3221 299.7816 14.79929747 41630
KUIPER-00149            
1 65968U 25228X   26191.32004637  .00001923  00000+0  28135-3 0  9993
2 65968  51.9006 155.8425 0000712  83.1153 276.9890 14.79910865 41701
KUIPER-00154            
1 65969U 25228Y   26191.28898320  .00001868  00000+0  27393-3 0  9992
2 65969  51.8984 153.4704 0000720  70.4837 289.6204 14.79938028 41731
KUIPER-00157            
1 65970U 25228Z   26191.28197711  .00001914  00000+0  27206-3 0  9995
2 65970  51.9004 156.0953 0000893  38.1160 321.9865 14.81188788 41694
KUIPER-00144            
1 67133U 25301A   26190.39235370  .00001905  00000+0  27886-3 0  9999
2 67133  51.9017 237.4508 0000263  73.2860 286.8131 14.79929871 31898
KUIPER-00164            
1 67134U 25301B   26191.16854660 -.00004933  00000+0 -67139-3 0  9996
2 67134  51.9027 246.3091 0001566 324.8876  35.1982 14.76517226 32013
KUIPER-00175            
1 67135U 25301C   26191.83335647 -.00063939  00000+0 -81802-2 0  9993
2 67135  51.8985 226.0505 0000423  99.2052 167.7680 14.81230606  5759
KUIPER-00179            
1 67136U 25301D   26191.46204536  .00000669  00000+0  11682-3 0  9994
2 67136  51.8973 242.6916 0000637  98.0978 262.0057 14.79927322 32097
KUIPER-00181            
1 67137U 25301E   26191.71869241  .00014415  00000+0  19167-2 0  9992
2 67137  51.9024 254.0936 0001402  51.1983 308.9105 14.79915318 31930
KUIPER-00183            
1 67138U 25301F   26191.76858407 -.00004756  00000+0 -43135-3 0  9992
2 67138  51.8949 226.5411 0009565 109.5937 250.6064 14.92771477 32336
KUIPER-00184            
1 67139U 25301G   26191.36611945  .00001539  00000+0  23087-3 0  9991
2 67139  51.8953 238.1179 0000339  96.9093 263.1907 14.79928010 32241
KUIPER-00186            
1 67140U 25301H   26191.21221173  .00001795  00000+0  26445-3 0  9992
2 67140  51.9025 256.3442 0000508  83.0629 277.0391 14.79930852 31707
KUIPER-00187            
1 67141U 25301J   26191.14199264  .00001027  00000+0  16378-3 0  9992
2 67141  51.9024 259.1774 0000548  92.4678 267.6348 14.79921052 31651
KUIPER-00188            
1 67142U 25301K   26191.48091250  .00000821  00000+0  13674-3 0  9993
2 67142  51.9014 225.2643 0000516  92.0349 268.0672 14.79936087 32151
