{"fetched_at":"2026-07-11T06:35:05.049Z","source":"https://celestrak.org/NORAD/elements/gp.php?GROUP=kuiper&FORMAT=JSON","constellation":"kuiper","records":[{"OBJECT_NAME":"KUIPER-00140","OBJECT_ID":"2025-228U","EPOCH":"2026-07-10T07:29:14.189856","CLASSIFICATION_TYPE":"U","MEAN_MOTION":14.79933287,"ECCENTRICITY":0.00005581,"INCLINATION":51.8982,"RA_OF_ASC_NODE":163.4277,"ARG_OF_PERICENTER":75.3014,"MEAN_ANOMALY":284.801,"EPHEMERIS_TYPE":0,"NORAD_CAT_ID":65965,"ELEMENT_SET_NO":999,"REV_AT_EPOCH":4159,"BSTAR":0.00026347343,"MEAN_MOTION_DOT":0.00001788,"MEAN_MOTION_DDOT":0},{"OBJECT_NAME":"KUIPER-00141","OBJECT_ID":"2025-228V","EPOCH":"2026-07-10T07:37:01.627680","CLASSIFICATION_TYPE":"U","MEAN_MOTION":14.79926994,"ECCENTRICITY":0.00007285,"INCLINATION":51.9009,"RA_OF_ASC_NODE":158.4578,"ARG_OF_PERICENTER":73.4076,"MEAN_ANOMALY":286.6967,"EPHEMERIS_TYPE":0,"NORAD_CAT_ID":65966,"ELEMENT_SET_NO":999,"REV_AT_EPOCH":4166,"BSTAR":0.00025749235,"MEAN_MOTION_DOT":0.00001742,"MEAN_MOTION_DDOT":0},{"OBJECT_NAME":"KUIPER-00146","OBJECT_ID":"2025-228W","EPOCH":"2026-07-10T08:21:46.061856","CLASSIFICATION_TYPE":"U","MEAN_MOTION":14.79929747,"ECCENTRICITY":0.00007547,"INCLINATION":51.9012,"RA_OF_ASC_NODE":160.8304,"ARG_OF_PERICENTER":60.3221,"MEAN_ANOMALY":299.7816,"EPHEMERIS_TYPE":0,"NORAD_CAT_ID":65967,"ELEMENT_SET_NO":999,"REV_AT_EPOCH":4163,"BSTAR":0.00015675242,"MEAN_MOTION_DOT":0.00000974,"MEAN_MOTION_DDOT":0},{"OBJECT_NAME":"KUIPER-00149","OBJECT_ID":"2025-228X","EPOCH":"2026-07-10T07:40:52.006368","CLASSIFICATION_TYPE":"U","MEAN_MOTION":14.79910865,"ECCENTRICITY":0.00007129,"INCLINATION":51.9006,"RA_OF_ASC_NODE":155.8425,"ARG_OF_PERICENTER":83.1153,"MEAN_ANOMALY":276.989,"EPHEMERIS_TYPE":0,"NORAD_CAT_ID":65968,"ELEMENT_SET_NO":999,"REV_AT_EPOCH":4170,"BSTAR":0.00028135105,"MEAN_MOTION_DOT":0.00001923,"MEAN_MOTION_DDOT":0},{"OBJECT_NAME":"KUIPER-00154","OBJECT_ID":"2025-228Y","EPOCH":"2026-07-10T06:56:08.148480","CLASSIFICATION_TYPE":"U","MEAN_MOTION":14.79938028,"ECCENTRICITY":0.00007205,"INCLINATION":51.8984,"RA_OF_ASC_NODE":153.4704,"ARG_OF_PERICENTER":70.4837,"MEAN_ANOMALY":289.6204,"EPHEMERIS_TYPE":0,"NORAD_CAT_ID":65969,"ELEMENT_SET_NO":999,"REV_AT_EPOCH":4173,"BSTAR":0.0002739297,"MEAN_MOTION_DOT":0.00001868,"MEAN_MOTION_DDOT":0},{"OBJECT_NAME":"KUIPER-00157","OBJECT_ID":"2025-228Z","EPOCH":"2026-07-10T06:46:02.822304","CLASSIFICATION_TYPE":"U","MEAN_MOTION":14.81188788,"ECCENTRICITY":0.00008935,"INCLINATION":51.9004,"RA_OF_ASC_NODE":156.0953,"ARG_OF_PERICENTER":38.116,"MEAN_ANOMALY":321.9865,"EPHEMERIS_TYPE":0,"NORAD_CAT_ID":65970,"ELEMENT_SET_NO":999,"REV_AT_EPOCH":4169,"BSTAR":0.00027206258,"MEAN_MOTION_DOT":0.00001914,"MEAN_MOTION_DDOT":0},{"OBJECT_NAME":"KUIPER-00144","OBJECT_ID":"2025-301A","EPOCH":"2026-07-09T09:24:59.359680","CLASSIFICATION_TYPE":"U","MEAN_MOTION":14.79929871,"ECCENTRICITY":0.00002633,"INCLINATION":51.9017,"RA_OF_ASC_NODE":237.4508,"ARG_OF_PERICENTER":73.286,"MEAN_ANOMALY":286.8131,"EPHEMERIS_TYPE":0,"NORAD_CAT_ID":67133,"ELEMENT_SET_NO":999,"REV_AT_EPOCH":3189,"BSTAR":0.00027886462,"MEAN_MOTION_DOT":0.00001905,"MEAN_MOTION_DDOT":0},{"OBJECT_NAME":"KUIPER-00164","OBJECT_ID":"2025-301B","EPOCH":"2026-07-10T04:02:42.426240","CLASSIFICATION_TYPE":"U","MEAN_MOTION":14.76517226,"ECCENTRICITY":0.00015661,"INCLINATION":51.9027,"RA_OF_ASC_NODE":246.3091,"ARG_OF_PERICENTER":324.8876,"MEAN_ANOMALY":35.1982,"EPHEMERIS_TYPE":0,"NORAD_CAT_ID":67134,"ELEMENT_SET_NO":999,"REV_AT_EPOCH":3201,"BSTAR":-0.00067138573,"MEAN_MOTION_DOT":-0.00004933,"MEAN_MOTION_DDOT":0},{"OBJECT_NAME":"KUIPER-00175","OBJECT_ID":"2025-301C","EPOCH":"2026-07-10T20:00:01.999008","CLASSIFICATION_TYPE":"U","MEAN_MOTION":14.81230606,"ECCENTRICITY":0.0000423,"INCLINATION":51.8985,"RA_OF_ASC_NODE":226.0505,"ARG_OF_PERICENTER":99.2052,"MEAN_ANOMALY":167.768,"EPHEMERIS_TYPE":0,"NORAD_CAT_ID":67135,"ELEMENT_SET_NO":999,"REV_AT_EPOCH":575,"BSTAR":-0.0081802,"MEAN_MOTION_DOT":-0.00063939,"MEAN_MOTION_DDOT":0},{"OBJECT_NAME":"KUIPER-00179","OBJECT_ID":"2025-301D","EPOCH":"2026-07-10T11:05:20.719104","CLASSIFICATION_TYPE":"U","MEAN_MOTION":14.79927322,"ECCENTRICITY":0.0000637,"INCLINATION":51.8973,"RA_OF_ASC_NODE":242.6916,"ARG_OF_PERICENTER":98.0978,"MEAN_ANOMALY":262.0057,"EPHEMERIS_TYPE":0,"NORAD_CAT_ID":67136,"ELEMENT_SET_NO":999,"REV_AT_EPOCH":3209,"BSTAR":0.00011682,"MEAN_MOTION_DOT":0.00000669,"MEAN_MOTION_DDOT":0},{"OBJECT_NAME":"KUIPER-00181","OBJECT_ID":"2025-301E","EPOCH":"2026-07-10T17:14:55.024224","CLASSIFICATION_TYPE":"U","MEAN_MOTION":14.79915318,"ECCENTRICITY":0.0001402,"INCLINATION":51.9024,"RA_OF_ASC_NODE":254.0936,"ARG_OF_PERICENTER":51.1983,"MEAN_ANOMALY":308.9105,"EPHEMERIS_TYPE":0,"NORAD_CAT_ID":67137,"ELEMENT_SET_NO":999,"REV_AT_EPOCH":3193,"BSTAR":0.0019167,"MEAN_MOTION_DOT":0.00014415,"MEAN_MOTION_DDOT":0},{"OBJECT_NAME":"KUIPER-00183","OBJECT_ID":"2025-301F","EPOCH":"2026-07-10T18:26:45.663648","CLASSIFICATION_TYPE":"U","MEAN_MOTION":14.92771477,"ECCENTRICITY":0.0009565,"INCLINATION":51.8949,"RA_OF_ASC_NODE":226.5411,"ARG_OF_PERICENTER":109.5937,"MEAN_ANOMALY":250.6064,"EPHEMERIS_TYPE":0,"NORAD_CAT_ID":67138,"ELEMENT_SET_NO":999,"REV_AT_EPOCH":3233,"BSTAR":-0.00043135,"MEAN_MOTION_DOT":-0.00004756,"MEAN_MOTION_DDOT":0},{"OBJECT_NAME":"KUIPER-00184","OBJECT_ID":"2025-301G","EPOCH":"2026-07-10T08:47:12.720480","CLASSIFICATION_TYPE":"U","MEAN_MOTION":14.7992801,"ECCENTRICITY":0.00003391,"INCLINATION":51.8953,"RA_OF_ASC_NODE":238.1179,"ARG_OF_PERICENTER":96.9093,"MEAN_ANOMALY":263.1907,"EPHEMERIS_TYPE":0,"NORAD_CAT_ID":67139,"ELEMENT_SET_NO":999,"REV_AT_EPOCH":3224,"BSTAR":0.00023087161,"MEAN_MOTION_DOT":0.00001539,"MEAN_MOTION_DDOT":0},{"OBJECT_NAME":"KUIPER-00186","OBJECT_ID":"2025-301H","EPOCH":"2026-07-10T05:05:35.093472","CLASSIFICATION_TYPE":"U","MEAN_MOTION":14.79930852,"ECCENTRICITY":0.00005082,"INCLINATION":51.9025,"RA_OF_ASC_NODE":256.3442,"ARG_OF_PERICENTER":83.0629,"MEAN_ANOMALY":277.0391,"EPHEMERIS_TYPE":0,"NORAD_CAT_ID":67140,"ELEMENT_SET_NO":999,"REV_AT_EPOCH":3170,"BSTAR":0.00026444901,"MEAN_MOTION_DOT":0.00001795,"MEAN_MOTION_DDOT":0},{"OBJECT_NAME":"KUIPER-00187","OBJECT_ID":"2025-301J","EPOCH":"2026-07-10T03:24:28.164096","CLASSIFICATION_TYPE":"U","MEAN_MOTION":14.79921052,"ECCENTRICITY":0.00005484,"INCLINATION":51.9024,"RA_OF_ASC_NODE":259.1774,"ARG_OF_PERICENTER":92.4678,"MEAN_ANOMALY":267.6348,"EPHEMERIS_TYPE":0,"NORAD_CAT_ID":67141,"ELEMENT_SET_NO":999,"REV_AT_EPOCH":3165,"BSTAR":0.00016377626,"MEAN_MOTION_DOT":0.00001027,"MEAN_MOTION_DDOT":0},{"OBJECT_NAME":"KUIPER-00188","OBJECT_ID":"2025-301K","EPOCH":"2026-07-10T11:32:30.840000","CLASSIFICATION_TYPE":"U","MEAN_MOTION":14.79936087,"ECCENTRICITY":0.0000516,"INCLINATION":51.9014,"RA_OF_ASC_NODE":225.2643,"ARG_OF_PERICENTER":92.0349,"MEAN_ANOMALY":268.0672,"EPHEMERIS_TYPE":0,"NORAD_CAT_ID":67142,"ELEMENT_SET_NO":999,"REV_AT_EPOCH":3215,"BSTAR":0.00013674,"MEAN_MOTION_DOT":0.00000821,"MEAN_MOTION_DDOT":0}]}
